{"type":"FeatureCollection","features":[{"type":"Feature","geometry":{"type":"Polygon","coordinates":[[[-71.270478,-32.787641,0],[-71.283469,-32.792701,0],[-71.286379,-32.806287,0],[-71.27339,-32.815955,0],[-71.2673,-32.819495,0],[-71.261354,-32.820148,0],[-71.258286,-32.822239,0],[-71.254397,-32.822949,0],[-71.252188,-32.824426,0],[-71.25225,-32.82574,0],[-71.250543,-32.826182,0],[-71.248117,-32.826173,0],[-71.247726,-32.824834,0],[-71.247258,-32.822436,0],[-71.245502,-32.818996,0],[-71.24478,-32.818193,0],[-71.244204,-32.816903,0],[-71.244237,-32.813779,0],[-71.243993,-32.811615,0],[-71.244023,-32.810253,0],[-71.250329,-32.80454,0],[-71.256143,-32.802808,0],[-71.261943,-32.802115,0],[-71.262881,-32.794855,0],[-71.270478,-32.787641,0]]]},"properties":{"name":"Canelillo","styleUrl":"#__managed_style_0A04EBCE41410CDA0377","fill-opacity":0.25098039215686274,"fill":"#ffffff","stroke-opacity":1,"stroke":"#fbc02d","stroke-width":4,"icon-offset":[64,128],"icon-offset-units":["pixels","insetPixels"],"icon":"https://earth.google.com/earth/document/icon?color=1976d2&id=2000&scale=4"},"id":"09D7C7EFA3410CDA035B"}]}
