{"type":"FeatureCollection","name":"CASETAS","crs":{"type":"name","properties":{"name":"urn:ogc:def:crs:OGC:1.3:CRS84"}},"features":[{"type":"Feature","properties":{"fid":8,"Alias":"Caseta 1","Numero":1,"nombre":"Caseta 1","numero":1,"tipo":"caseta"},"geometry":{"type":"MultiPolygon","coordinates":[[[[-71.25872651989951,-32.812086293209376],[-71.2585509028096,-32.81214747404563],[-71.25862565941004,-32.81229166186182],[-71.25878797397469,-32.812228685537335],[-71.25872651989951,-32.812086293209376]]]]}},{"type":"Feature","properties":{"fid":9,"Alias":"Caseta 10","Numero":10,"nombre":"Caseta 10","numero":10,"tipo":"caseta"},"geometry":{"type":"MultiPolygon","coordinates":[[[[-71.24964126120405,-32.81546499494113],[-71.24949951637988,-32.81553166088077],[-71.24957392843484,-32.81566262987581],[-71.24971580164315,-32.815601050258294],[-71.24964126120405,-32.81546499494113]]]]}},{"type":"Feature","properties":{"fid":10,"Alias":"Caseta 6","Numero":6,"nombre":"Caseta 6","numero":6,"tipo":"caseta"},"geometry":{"type":"MultiPolygon","coordinates":[[[[-71.25752376304636,-32.808562183055166],[-71.2574736887059,-32.80863127502741],[-71.25737292943533,-32.80855472632607],[-71.25742718369261,-32.808507949325765],[-71.25752376304636,-32.808562183055166]]]]}},{"type":"Feature","properties":{"fid":11,"Alias":"Caseta 5","Numero":5,"nombre":"Caseta 5","numero":5,"tipo":"caseta"},"geometry":{"type":"MultiPolygon","coordinates":[[[[-71.26468101082418,-32.81103625234583],[-71.2644428108807,-32.811029367510564],[-71.26444068114698,-32.811087926085506],[-71.26468109691504,-32.81108713777463],[-71.26468101082418,-32.81103625234583]]]]}},{"type":"Feature","properties":{"fid":12,"Alias":"Caseta 11","Numero":11,"nombre":"Caseta 11","numero":11,"tipo":"caseta"},"geometry":{"type":"MultiPolygon","coordinates":[[[[-71.26753214431996,-32.814651028512486],[-71.26764599994891,-32.81476804077426],[-71.26738007935616,-32.814927555491415],[-71.26726175681128,-32.8147770385482],[-71.26753214431996,-32.814651028512486]]]]}},{"type":"Feature","properties":{"fid":13,"Alias":"Caseta 9","Numero":9,"nombre":"Caseta 9","numero":9,"tipo":"caseta"},"geometry":{"type":"MultiPolygon","coordinates":[[[[-71.2655228946792,-32.81690125659085],[-71.26544248862933,-32.81691492515433],[-71.26546778037525,-32.81700911696788],[-71.26553836795196,-32.81698850197762],[-71.2655228946792,-32.81690125659085]]]]}},{"type":"Feature","properties":{"fid":14,"Alias":"Caseta 7","Numero":7,"nombre":"Caseta 7","numero":7,"tipo":"caseta"},"geometry":{"type":"MultiPolygon","coordinates":[[[[-71.26492176781758,-32.80618109202847],[-71.26483826515823,-32.80616733702699],[-71.26475438366178,-32.80632864016886],[-71.26485972367601,-32.80634810648982],[-71.26492176781758,-32.80618109202847]]]]}},{"type":"Feature","properties":{"fid":15,"Alias":"Caseta 8","Numero":8,"nombre":"Caseta 8","numero":8,"tipo":"caseta"},"geometry":{"type":"MultiPolygon","coordinates":[[[[-71.27338454160783,-32.8122053229421],[-71.27333810459822,-32.81222753899636],[-71.27339311787185,-32.81235273901145],[-71.27343353168948,-32.81233063235718],[-71.27338454160783,-32.8122053229421]]]]}},{"type":"Feature","properties":{"fid":16,"Alias":"Caseta 12","Numero":12,"nombre":"Caseta 12","numero":12,"tipo":"caseta"},"geometry":{"type":"MultiPolygon","coordinates":[[[[-71.27867052545804,-32.81107109463604],[-71.27877871452,-32.81115461445386],[-71.27866328437294,-32.81125950757387],[-71.27856193345623,-32.81116059711864],[-71.27867052545804,-32.81107109463604]]]]}},{"type":"Feature","properties":{"fid":17,"Alias":"Caseta 4","Numero":4,"nombre":"Caseta 4","numero":4,"tipo":"caseta"},"geometry":{"type":"MultiPolygon","coordinates":[[[[-71.27880034086434,-32.80581823104812],[-71.27873696081038,-32.805743054812254],[-71.27862767389239,-32.80580509101801],[-71.2786971805646,-32.8058842267087],[-71.27880034086434,-32.80581823104812]]]]}},{"type":"Feature","properties":{"fid":18,"Alias":"Caseta 2","Numero":2,"nombre":"Caseta 2","numero":2,"tipo":"caseta"},"geometry":{"type":"MultiPolygon","coordinates":[[[[-71.27369631773975,-32.80433763671475],[-71.27351646621946,-32.80446812111026],[-71.27361183283652,-32.80456918027313],[-71.2737895603506,-32.80444992944558],[-71.27369631773975,-32.80433763671475]]]]}},{"type":"Feature","properties":{"fid":19,"Alias":"Caseta 3","Numero":3,"nombre":"Caseta 3","numero":3,"tipo":"caseta"},"geometry":{"type":"MultiPolygon","coordinates":[[[[-71.27250440388696,-32.795434221922385],[-71.27235500530269,-32.79534024880767],[-71.27230672351506,-32.79543170409522],[-71.27242567511828,-32.795512999380804],[-71.27250440388696,-32.795434221922385]]]]}}]}