{"type":"FeatureCollection","name":"TRANQUES","crs":{"type":"name","properties":{"name":"urn:ogc:def:crs:EPSG::32719"}},"features":[{"type":"Feature","properties":{"fid":1,"Nombre_Tranque":"Tranque 6","numero_Tranque":6,"nombre":"Tranque 6","numero":6,"tipo":"tranque"},"geometry":{"type":"Polygon","coordinates":[[[-71.26743703659797,-32.81423572670591],[-71.26738324245035,-32.81426021116198],[-71.26745569484285,-32.81452178023681],[-71.26767044296281,-32.814556359445056],[-71.26770811902246,-32.81454499045182],[-71.26785280237368,-32.81441199621065],[-71.26788403418735,-32.81434624406424],[-71.26787533168027,-32.81430258814185],[-71.26781794909566,-32.81428546142878],[-71.26743703659797,-32.81423572670591]]]}},{"type":"Feature","properties":{"fid":2,"Nombre_Tranque":"Desarenador la Vega","numero_Tranque":8,"nombre":"Desarenador la Vega","numero":8,"tipo":"tranque"},"geometry":{"type":"Polygon","coordinates":[[[-71.24967919595271,-32.81583991712676],[-71.24950664680802,-32.81552136119418],[-71.2492880006377,-32.815633223127655],[-71.24948749026807,-32.81596625591839],[-71.2497001084438,-32.815866256933234],[-71.24967919595271,-32.81583991712676]]]}},{"type":"Feature","properties":{"fid":3,"Nombre_Tranque":"Tranque 7","numero_Tranque":7,"nombre":"Tranque 7","numero":7,"tipo":"tranque"},"geometry":{"type":"Polygon","coordinates":[[[-71.26036813203625,-32.81135675859732],[-71.26042975909041,-32.81154158674936],[-71.26036127281631,-32.81158556887613],[-71.26012094532977,-32.81158990940852],[-71.25972094514712,-32.811585377841084],[-71.25969970632484,-32.811546222100866],[-71.25969880751173,-32.81146074807572],[-71.25972598576088,-32.81143461025144],[-71.25998452870165,-32.81140001995378],[-71.2603173475362,-32.81135019545332],[-71.26036813203625,-32.81135675859732]]]}},{"type":"Feature","properties":{"fid":4,"Nombre_Tranque":"Desarenador M1","numero_Tranque":9,"nombre":"Desarenador M1","numero":9,"tipo":"tranque"},"geometry":{"type":"Polygon","coordinates":[[[-71.25915300387238,-32.811970185945256],[-71.25918511881552,-32.81203906702955],[-71.25877240384838,-32.812182232725995],[-71.25873382953158,-32.81210812497356],[-71.25915300387238,-32.811970185945256]]]}},{"type":"Feature","properties":{"fid":5,"Nombre_Tranque":"Tranque 1","numero_Tranque":1,"nombre":"Tranque 1","numero":1,"tipo":"tranque"},"geometry":{"type":"Polygon","coordinates":[[[-71.26465703180419,-32.81114296967272],[-71.26425464004288,-32.81114383898766],[-71.26409121894652,-32.81108695253402],[-71.26400014822755,-32.81108860011243],[-71.26379934032498,-32.8111542130987],[-71.2635862084851,-32.81123287220414],[-71.26352459030635,-32.81129810433449],[-71.26353617226417,-32.81135560070987],[-71.2636004997374,-32.811397182269836],[-71.26379975401463,-32.811370068261795],[-71.26449391743107,-32.81129766630034],[-71.26468084766418,-32.811283597420534],[-71.2646844976682,-32.81122796278078],[-71.26467797448507,-32.811170374984464],[-71.26465703180419,-32.81114296967272]]]}},{"type":"Feature","properties":{"fid":6,"Nombre_Tranque":"Tranque 4","numero_Tranque":4,"nombre":"Tranque 4","numero":4,"tipo":"tranque"},"geometry":{"type":"Polygon","coordinates":[[[-71.27326174828792,-32.812023527190654],[-71.27305545123455,-32.8120721566531],[-71.27306219755522,-32.81213828880368],[-71.27323664457441,-32.81252837369187],[-71.27329482921111,-32.81252731674693],[-71.27343486344817,-32.81246065543381],[-71.2734386712478,-32.812411429562225],[-71.27327575750783,-32.81207670390679],[-71.27326174828792,-32.812023527190654]]]}},{"type":"Feature","properties":{"fid":7,"Nombre_Tranque":"Tranque 2","numero_Tranque":2,"nombre":"Tranque 2","numero":2,"tipo":"tranque"},"geometry":{"type":"Polygon","coordinates":[[[-71.27411311477536,-32.804910257127794],[-71.27375630999445,-32.80461325029416],[-71.27369127582952,-32.804543902511966],[-71.27377047984055,-32.8044740716364],[-71.27387171576386,-32.80447436968205],[-71.27407873074127,-32.80455396121422],[-71.27417422854725,-32.80462702975367],[-71.27429926461618,-32.804667502726915],[-71.27451305253277,-32.804714911703655],[-71.27461339220416,-32.80477934290378],[-71.27472983474568,-32.80487981458631],[-71.27480564142496,-32.804974612989966],[-71.27478763705568,-32.805062567435456],[-71.27471580429723,-32.80512371597613],[-71.27459590986822,-32.805185737954986],[-71.27441620248085,-32.80518472931254],[-71.27417039761019,-32.80497333376894],[-71.27411311477536,-32.804910257127794]]]}},{"type":"Feature","properties":{"fid":8,"Nombre_Tranque":"Tranque 5","numero_Tranque":5,"nombre":"Tranque 5","numero":5,"tipo":"tranque"},"geometry":{"type":"Polygon","coordinates":[[[-71.27935782501794,-32.81139329193491],[-71.27922448891316,-32.81127603472929],[-71.2791566875052,-32.81124734813275],[-71.27904987350742,-32.81132623419993],[-71.27891443117244,-32.81142380809061],[-71.27887642054802,-32.81147151964842],[-71.27904159637308,-32.81159674636603],[-71.27916878211674,-32.81167137088123],[-71.27932035032481,-32.811511522922835],[-71.27935782501794,-32.81139329193491]]]}},{"type":"Feature","properties":{"fid":9,"Nombre_Tranque":"Tranque 3","numero_Tranque":3,"nombre":"Tranque 3","numero":3,"tipo":"tranque"},"geometry":{"type":"Polygon","coordinates":[[[-71.27239134559079,-32.795281151339445],[-71.27233012795254,-32.79516257645006],[-71.27230007715913,-32.79507549456843],[-71.27229159240616,-32.79504038390814],[-71.27230234900036,-32.795015610233875],[-71.27232465039224,-32.79499703874869],[-71.27241275288577,-32.7950285668346],[-71.2725036565343,-32.79507073027],[-71.27255670269234,-32.795116786814425],[-71.27262376865916,-32.79516686330832],[-71.2726880879464,-32.79520844061975],[-71.27273225462098,-32.79525358967161],[-71.27274224887863,-32.79529829052772],[-71.27270811665387,-32.79534913568306],[-71.27265573572393,-32.7953789396165],[-71.27253971493263,-32.79539386950698],[-71.27245661623137,-32.79536011343066],[-71.27239964014251,-32.7953087850567],[-71.27239134559079,-32.795281151339445]]]}}],"crs_original":"EPSG:32719","crs_normalizado":"EPSG:4326"}